{
    "links": {
        "self": "http://www.neowsapp.com/rest/v1/neo/3826799?api_key=iIulBulltgU6a56xZRHN4H3l9WmuAYTsLGpBGhQ2"
    },
    "id": "3826799",
    "neo_reference_id": "3826799",
    "name": "(2018 PY21)",
    "designation": "2018 PY21",
    "nasa_jpl_url": "http://ssd.jpl.nasa.gov/sbdb.cgi?sstr=3826799",
    "absolute_magnitude_h": 23.3,
    "estimated_diameter": {
        "kilometers": {
            "estimated_diameter_min": 0.058150704,
            "estimated_diameter_max": 0.130028927
        },
        "meters": {
            "estimated_diameter_min": 58.1507039646,
            "estimated_diameter_max": 130.0289270043
        },
        "miles": {
            "estimated_diameter_min": 0.0361331611,
            "estimated_diameter_max": 0.0807962044
        },
        "feet": {
            "estimated_diameter_min": 190.7831555951,
            "estimated_diameter_max": 426.6041048727
        }
    },
    "is_potentially_hazardous_asteroid": false,
    "close_approach_data": [
        {
            "close_approach_date": "2018-08-06",
            "close_approach_date_full": "2018-Aug-06 06:03",
            "epoch_date_close_approach": 1533535380000,
            "relative_velocity": {
                "kilometers_per_second": "4.0761396961",
                "kilometers_per_hour": "14674.1029059961",
                "miles_per_hour": "9117.9168862285"
            },
            "miss_distance": {
                "astronomical": "0.2855005647",
                "lunar": "111.0597196683",
                "kilometers": "42710276.362917189",
                "miles": "26538935.1051436482"
            },
            "orbiting_body": "Earth"
        }
    ],
    "orbital_data": {
        "orbit_id": "2",
        "orbit_determination_date": "2018-09-06 06:52:58",
        "first_observation_date": "2018-08-11",
        "last_observation_date": "2018-09-05",
        "data_arc_in_days": 25,
        "observations_used": 16,
        "orbit_uncertainty": "7",
        "minimum_orbit_intersection": ".254457",
        "jupiter_tisserand_invariant": "3.536",
        "epoch_osculation": "2459000.5",
        "eccentricity": ".4250679034752533",
        "semi_major_axis": "2.19716925544182",
        "inclination": "6.840913376290771",
        "ascending_node_longitude": "150.7384529177184",
        "orbital_period": "1189.580117864359",
        "perihelion_distance": "1.263223126450882",
        "perihelion_argument": "154.3616871400484",
        "aphelion_distance": "3.131115384432757",
        "perihelion_time": "2459509.491114998105",
        "mean_anomaly": "205.9651446358392",
        "mean_motion": ".3026277882369993",
        "equinox": "J2000",
        "orbit_class": {
            "orbit_class_type": "AMO",
            "orbit_class_description": "Near-Earth asteroid orbits similar to that of 1221 Amor",
            "orbit_class_range": "1.017 AU < q (perihelion) < 1.3 AU"
        }
    },
    "is_sentry_object": false
}